[
    {
        "Altitude(m)": 604234.6253180635,
        "Argument of Periapsis(deg)": 0.0,
        "Eccentricity": 0.0,
        "Inclination(deg)": 60.0,
        "Latitude(deg)": 14.117327510380386,
        "Longitude(deg)": 111.72733641468554,
        "Mean Anomaly(deg)": 163.6364,
        "RAAN(deg)": 40.0,
        "Satellite Name": "Test1 186",
        "Satellite Number": 186,
        "Semi-Major Axis(m)": 6980739.136638005,
        "Time(s)": 0
    },
    {
        "Altitude(m)": 604223.4532934627,
        "Argument of Periapsis(deg)": 0.00010418945913296404,
        "Eccentricity": 0.0,
        "Inclination(deg)": 60.0,
        "Latitude(deg)": 13.582463699828473,
        "Longitude(deg)": 112.0142453428081,
        "Mean Anomaly(deg)": 164.25650614546183,
        "RAAN(deg)": 39.99957995086026,
        "Satellite Name": "Test1 186",
        "Satellite Number": 186,
        "Semi-Major Axis(m)": 6980739.136638005,
        "Time(s)": 10
    }
]